{
  "norad_id": 64790,
  "name": "STARLINK-34629",
  "history": [
    {
      "epoch": "2026-03-28T17:49:57.653760Z",
      "apogee_km": 574.2941993341537,
      "perigee_km": 569.6908505446054,
      "latitude_deg": -3.878506138899212e-06,
      "longitude_deg": -7.340023478853718,
      "height_km": 574.6216042938114,
      "semi_major_axis_km": 6950.12952493938,
      "eccentricity": 0.00033117,
      "inclination_deg": 70.0011,
      "raan_deg": 86.3093,
      "arg_perigee_deg": 264.985,
      "mean_anomaly_deg": 95.0931,
      "mean_motion_rev_day": 14.98350491
    },
    {
      "epoch": "2026-03-29T05:02:53.857248Z",
      "apogee_km": 574.1741312251979,
      "perigee_km": 569.8163982951928,
      "latitude_deg": 8.486251463807943e-06,
      "longitude_deg": -177.21140901780842,
      "height_km": 574.4750666547228,
      "semi_major_axis_km": 6950.132264760195,
      "eccentricity": 0.0003135,
      "inclination_deg": 70.0019,
      "raan_deg": 85.1327,
      "arg_perigee_deg": 268.6311,
      "mean_anomaly_deg": 91.4489,
      "mean_motion_rev_day": 14.98349605
    },
    {
      "epoch": "2026-03-30T01:52:38.498304Z",
      "apogee_km": 574.1568481064351,
      "perigee_km": 569.8505409321106,
      "latitude_deg": 3.329745107201903e-05,
      "longitude_deg": -132.69222332965563,
      "height_km": 574.5552390756665,
      "semi_major_axis_km": 6950.140694519273,
      "eccentricity": 0.0003098,
      "inclination_deg": 70.0015,
      "raan_deg": 82.9433,
      "arg_perigee_deg": 266.7023,
      "mean_anomaly_deg": 93.3782,
      "mean_motion_rev_day": 14.98346879
    },
    {
      "epoch": "2026-03-30T05:04:54.521760Z",
      "apogee_km": 574.2328144068151,
      "perigee_km": 569.8088999275706,
      "latitude_deg": 9.397765299618004e-06,
      "longitude_deg": 178.7729016494038,
      "height_km": 574.5686763061275,
      "semi_major_axis_km": 6950.157857167193,
      "eccentricity": 0.00031826,
      "inclination_deg": 70.0017,
      "raan_deg": 82.6068,
      "arg_perigee_deg": 266.8891,
      "mean_anomaly_deg": 93.1904,
      "mean_motion_rev_day": 14.98341329
    },
    {
      "epoch": "2026-03-30T14:41:43.241856Z",
      "apogee_km": 574.0983885769465,
      "perigee_km": 569.9777687762999,
      "latitude_deg": 2.8178035750218165e-05,
      "longitude_deg": 33.165694724175374,
      "height_km": 574.2777313833659,
      "semi_major_axis_km": 6950.175078676622,
      "eccentricity": 0.00029644,
      "inclination_deg": 70.0011,
      "raan_deg": 81.5974,
      "arg_perigee_deg": 275.2301,
      "mean_anomaly_deg": 84.852,
      "mean_motion_rev_day": 14.9833576
    },
    {
      "epoch": "2026-03-30T16:17:50.764992Z",
      "apogee_km": 574.3286755816989,
      "perigee_km": 569.669999194748,
      "latitude_deg": 6.26476648012148e-05,
      "longitude_deg": 8.899865389730598,
      "height_km": 574.5246948065961,
      "semi_major_axis_km": 6950.136337388223,
      "eccentricity": 0.00033515,
      "inclination_deg": 70.0009,
      "raan_deg": 81.4287,
      "arg_perigee_deg": 267.6017,
      "mean_anomaly_deg": 92.4759,
      "mean_motion_rev_day": 14.98348288
    },
    {
      "epoch": "2026-03-31T21:08:15.256896Z",
      "apogee_km": 574.2409487233326,
      "perigee_km": 569.8845635161961,
      "latitude_deg": 1.0255205552104232e-05,
      "longitude_deg": -67.91712389224003,
      "height_km": 574.4779756855089,
      "semi_major_axis_km": 6950.199756119764,
      "eccentricity": 0.0003134,
      "inclination_deg": 70.0005,
      "raan_deg": 78.3982,
      "arg_perigee_deg": 270.3261,
      "mean_anomaly_deg": 89.7539,
      "mean_motion_rev_day": 14.9832778
    },
    {
      "epoch": "2026-04-01T16:21:52.519104Z",
      "apogee_km": 574.248312676802,
      "perigee_km": 569.9072085373264,
      "latitude_deg": 6.934909046333367e-05,
      "longitude_deg": 0.8679137643300509,
      "height_km": 574.4465326528812,
      "semi_major_axis_km": 6950.214760607064,
      "eccentricity": 0.0003123,
      "inclination_deg": 70.0008,
      "raan_deg": 76.3781,
      "arg_perigee_deg": 271.5533,
      "mean_anomaly_deg": 88.5269,
      "mean_motion_rev_day": 14.98322928
    },
    {
      "epoch": "2026-04-02T16:23:54.337920Z",
      "apogee_km": 574.2644407777689,
      "perigee_km": 569.8788591196517,
      "latitude_deg": -6.728045402689282e-05,
      "longitude_deg": -3.15174789818711,
      "height_km": 574.4186175688135,
      "semi_major_axis_km": 6950.20864994871,
      "eccentricity": 0.0003155,
      "inclination_deg": 70.0011,
      "raan_deg": 73.8531,
      "arg_perigee_deg": 272.1092,
      "mean_anomaly_deg": 87.9705,
      "mean_motion_rev_day": 14.98324904
    },
    {
      "epoch": "2026-04-02T22:48:26.638848Z",
      "apogee_km": 574.2445279118801,
      "perigee_km": 569.8602094543276,
      "latitude_deg": 1.3149642101477553e-05,
      "longitude_deg": -100.22241294641952,
      "height_km": 574.3928777202791,
      "semi_major_axis_km": 6950.189368683104,
      "eccentricity": 0.00031541,
      "inclination_deg": 70.0016,
      "raan_deg": 73.1802,
      "arg_perigee_deg": 272.2796,
      "mean_anomaly_deg": 87.8002,
      "mean_motion_rev_day": 14.98331139
    },
    {
      "epoch": "2026-04-03T08:25:15.040992Z",
      "apogee_km": 574.239404618238,
      "perigee_km": 569.841193419873,
      "latitude_deg": -7.049825092368639e-05,
      "longitude_deg": 114.17117102677685,
      "height_km": 574.376390688691,
      "semi_major_axis_km": 6950.177299019056,
      "eccentricity": 0.00031641,
      "inclination_deg": 70.0017,
      "raan_deg": 72.1703,
      "arg_perigee_deg": 272.3883,
      "mean_anomaly_deg": 87.6913,
      "mean_motion_rev_day": 14.98335042
    },
    {
      "epoch": "2026-04-04T21:16:20.122464Z",
      "apogee_km": 573.9680530187543,
      "perigee_km": 570.0773536168363,
      "latitude_deg": -3.1440871592699467e-06,
      "longitude_deg": -83.98271197918187,
      "height_km": 574.5788359826333,
      "semi_major_axis_km": 6950.159703317795,
      "eccentricity": 0.0002799,
      "inclination_deg": 70.0028,
      "raan_deg": 68.301,
      "arg_perigee_deg": 266.208,
      "mean_anomaly_deg": 93.8759,
      "mean_motion_rev_day": 14.98340732
    }
  ]
}